[{"OBJECT_NAME":"YUNYAO-1 19","OBJECT_ID":"2024-009B","EPOCH":"2026-03-09T22:41:16.279584","MEAN_MOTION":15.16041229,"ECCENTRICITY":0.00054864,"INCLINATION":49.9832,"RA_OF_ASC_NODE":292.0338,"ARG_OF_PERICENTER":239.381,"MEAN_ANOMALY":120.6601,"EPHEMERIS_TYPE":0,"CLASSIFICATION_TYPE":"U","NORAD_CAT_ID":58759,"ELEMENT_SET_NO":999,"REV_AT_EPOCH":11960,"BSTAR":0.00060829215,"MEAN_MOTION_DOT":0.00011575,"MEAN_MOTION_DDOT":0},{"OBJECT_NAME":"TIANYI F","OBJECT_ID":"2025-103F","EPOCH":"2026-03-09T23:54:55.522944","MEAN_MOTION":15.18246358,"ECCENTRICITY":0.00043161,"INCLINATION":97.388,"RA_OF_ASC_NODE":142.7834,"ARG_OF_PERICENTER":136.4512,"MEAN_ANOMALY":223.7064,"EPHEMERIS_TYPE":0,"CLASSIFICATION_TYPE":"U","NORAD_CAT_ID":64053,"ELEMENT_SET_NO":999,"REV_AT_EPOCH":4499,"BSTAR":0.00028443218,"MEAN_MOTION_DOT":5.759e-5,"MEAN_MOTION_DDOT":0}]
